{"type": "Feature", "properties": {"shapeName": "Kyzylorda Region", "shapeISO": "KZ-KZY", "shapeID": "16772668B75519035879642", "shapeGroup": "KAZ", "shapeType": "ADM1"}, "geometry": {"type": "Polygon", "coordinates": [[[62.9500893, 47.1907705], [62.89008, 47.1773487], [62.8601538, 47.2146532], [62.5811687, 47.2423453], [62.6057258, 47.3284453], [62.3326164, 47.5311285], [62.2125287, 47.5455563], [62.075832, 47.7233112], [61.9248629, 47.8277265], [61.3597972, 47.8187854], [61.3515924, 47.8154016], [61.3210154, 47.7960321], [61.3142209, 47.7900512], [61.0010179, 47.2347025], [60.9369551, 47.1312369], [60.9309601, 47.1268497], [60.9234994, 47.1103374], [60.7024563, 47.1040848], [60.5313316, 47.1167134], [60.4950016, 47.1218087], [60.4744218, 46.9108109], [60.3272642, 46.9132478], [60.1641993, 46.899161], [60.1296088, 46.8948671], [60.013218, 46.8153637], [59.7692551, 46.6625322], [59.5613884, 46.4999641], [59.4997977, 46.4421543], [59.4738204, 46.4135817], [59.1118129, 46.0529815], [59.0306023, 46.0070443], [59.0401149251466, 45.90955720235128], [59.0450931, 45.9036228], [59.0481916, 45.9017832], [59.051097, 45.9019415], [59.0681129, 45.9412379], [59.0796099, 45.9472719], [59.0962669, 45.9500721], [59.1179034, 45.9518003], [59.1412815, 45.9496131], [59.1634216, 45.9448388], [59.1715475, 45.9411842], [59.1784613, 45.9293699], [59.1805534, 45.9285744], [59.1834822, 45.9316365], [59.1895527, 45.9490805], [59.1987709, 45.9606479], [59.222209, 45.9756006], [59.2375922, 45.992257], [59.2440402, 45.9969334], [59.27021, 46.0058066], [59.2835309, 46.007911], [59.2940323, 46.0069095], [59.3018128, 46.0039644], [59.3106577, 45.9964072], [59.3124815, 45.9867062], [59.3080742, 45.9658609], [59.2924315, 45.9352768], [59.2768876, 45.9157389], [59.2406327, 45.8813541], [59.2167031, 45.8664383], [59.1906921, 45.8632795], [59.1478068, 45.8646243], [59.1349108, 45.8698837], [59.0984671, 45.8785278], [59.0882831, 45.8786544], [59.0815755, 45.8807995], [59.080112, 45.8798733], [59.0825991, 45.8710506], [59.0819253, 45.8604628], [59.0663893, 45.8364192], [59.0538473, 45.8084935], [59.05027750028493, 45.8054093], [59.0965967, 45.3228973], [59.497905, 45.151321], [59.56165407028313, 45.132158298436686], [59.5592413, 45.144786], [59.561327, 45.1579091], [59.5791798, 45.1959841], [59.5763817, 45.2037194], [59.5792055, 45.2281522], [59.5955563, 45.2568161], [59.5948954, 45.2610996], [59.5850506, 45.2770709], [59.5854025, 45.2869752], [59.5956164, 45.3119698], [59.6083107, 45.3229482], [59.6132117, 45.3253048], [59.6276655, 45.3277819], [59.6262322, 45.350201], [59.6223526, 45.3558044], [59.6219449, 45.3644437], [59.6165762, 45.3687974], [59.6155849, 45.3857662], [59.624846, 45.3949493], [59.6403513, 45.3969895], [59.6508076, 45.401335], [59.6528139, 45.4056134], [59.6523118, 45.4282999], [59.6534663, 45.4325253], [59.6596589, 45.4385782], [59.6655255, 45.4397014], [59.6795888, 45.4359162], [59.6835841, 45.4378187], [59.6834941, 45.4395779], [59.6776834, 45.4457415], [59.665165, 45.4497007], [59.6556378, 45.4547042], [59.6540585, 45.4579553], [59.6554447, 45.4613237], [59.659719, 45.4622568], [59.6603327, 45.46846], [59.6581912, 45.4716141], [59.6388622, 45.4761883], [59.5963682, 45.4971807], [59.586024, 45.499799], [59.5743477, 45.5069434], [59.5613613, 45.5096051], [59.55404, 45.5270607], [59.5505424, 45.5293998], [59.5328055, 45.5320063], [59.4774704, 45.5321746], [59.464123, 45.5371548], [59.4425752, 45.5487988], [59.4266364, 45.56273], [59.3940851, 45.6028694], [59.3892185, 45.6152022], [59.3932998, 45.6239579], [59.3980376, 45.6259207], [59.3967974, 45.6296061], [59.400089, 45.6348307], [59.4177958, 45.6438113], [59.4531195, 45.6480415], [59.4652559, 45.6453114], [59.4713756, 45.641543], [59.4859583, 45.6189484], [59.490963, 45.607536], [59.5183087, 45.5832277], [59.5229564, 45.5766917], [59.5203085, 45.5643384], [59.5230036, 45.5538425], [59.5406933, 45.5444027], [59.5489717, 45.5357099], [59.5594602, 45.5308067], [59.5771885, 45.5289969], [59.6147695, 45.538271], [59.6283179, 45.538301], [59.6499687, 45.5303618], [59.7006045, 45.4992224], [59.7151013, 45.4928872], [59.7267571, 45.4821944], [59.7661791, 45.4610257], [59.7971554, 45.452332], [59.8331099, 45.4267186], [59.8697081, 45.3715681], [59.8828574, 45.3642959], [59.87957, 45.3406698], [59.8841534, 45.3332306], [59.8923331, 45.3276069], [59.8916292, 45.3022872], [59.8850889, 45.2896563], [59.886282, 45.2862686], [59.871768, 45.2254742], [59.8663864, 45.2123002], [59.8697768, 45.1977592], [59.8777762, 45.1838014], [59.8766775, 45.1789373], [59.8734331, 45.176735], [59.8721543, 45.1728021], [59.8717852, 45.1598579], [59.877347, 45.1475222], [59.8723603, 45.1445075], [59.8711415, 45.1386713], [59.8745833, 45.1333976], [59.8746434, 45.1204566], [59.8700342, 45.1135398], [59.8717251, 45.0974984], [59.86585331913011, 45.040717287680785], [59.991375, 45.002986], [60.570201, 44.667148], [60.9904177, 44.4125943], [61.0642109, 44.3728118], [61.1065656, 44.3604334], [61.1377608, 44.2257871], [61.4254481, 43.9994771], [62.004055, 43.505401], [62.2424994, 43.5185538], [63.3490764, 43.6504846], [63.8576283, 43.5992579], [64.5348607, 43.5706872], [64.9322634, 43.7353744], [65.0021563, 43.7153968], [65.184862, 43.4951617], [65.4954695, 43.3329139], [65.532129, 43.3150927], [65.5592582, 43.289475], [65.7418195, 42.999845], [65.8441558, 42.8582546], [66.0966931, 42.9381375], [66.095024, 42.566158], [66.0706756, 42.3379411], [66.1485332, 42.3227065], [66.5774814, 42.577751], [67.1242717, 42.8985275], [67.2242762, 42.9512452], [67.825286, 43.1783831], [67.8285759, 43.1844708], [67.8361715, 43.1846208], [67.8414847, 43.1915093], [67.8555534, 43.1955329], [67.8616491, 43.2027013], [67.8750475, 43.213288], [67.8744676, 43.2177737], [67.8708633, 43.2203364], [67.8642779, 43.2204182], [67.845016, 43.2167692], [67.8363643, 43.217309], [67.8282947, 43.2252139], [67.8214951, 43.2280478], [67.8146426, 43.2280863], [67.7963339, 43.2220713], [67.7881585, 43.2233245], [67.7865181, 43.2250018], [67.7862006, 43.2293394], [67.7899832, 43.2335811], [67.8228408, 43.2450474], [67.8293494, 43.250193], [67.830478, 43.2530756], [67.8269608, 43.2562095], [67.8105162, 43.2549696], [67.799553, 43.258771], [67.7837632, 43.2561005], [67.7820828, 43.2601327], [67.7844508, 43.2667509], [67.7834561, 43.2709138], [67.7801803, 43.2731225], [67.7710405, 43.2730306], [67.7677291, 43.2751419], [67.7691696, 43.2796366], [67.7821475, 43.28297], [67.786624, 43.2863967], [67.7923388, 43.2875907], [67.7994824, 43.2843551], [67.8033187, 43.2847114], [67.8091262, 43.2865411], [67.8140091, 43.2906162], [67.8135601, 43.2962421], [67.8026157, 43.2997414], [67.7909229, 43.3109459], [67.7915403, 43.320134], [67.7992669, 43.3232644], [67.7935795, 43.3292526], [67.7787438, 43.3352947], [67.7680348, 43.3348864], [67.7515062, 43.3319365], [67.7292254, 43.3384776], [67.722194, 43.3441391], [67.7150738, 43.3465642], [67.713794, 43.3497102], [67.7155425, 43.3538915], [67.7225078, 43.3582158], [67.7295559, 43.3588318], [67.7349996, 43.3570231], [67.7414348, 43.3517804], [67.7466082, 43.351374], [67.7488643, 43.3532648], [67.7471034, 43.3591195], [67.7424708, 43.3631952], [67.7323527, 43.3663784], [67.7081888, 43.3674532], [67.6933536, 43.3627487], [67.6842326, 43.3535089], [67.6816369, 43.3484887], [67.6818712, 43.3378701], [67.6795099, 43.3275251], [67.6802669, 43.3225814], [67.6867382, 43.3168504], [67.687522, 43.3134004], [67.6855212, 43.3108034], [67.6777881, 43.3100951], [67.6691251, 43.3181563], [67.662363, 43.3214425], [67.6587455, 43.3311174], [67.6594848, 43.3425944], [67.6655881, 43.3572215], [67.6671744, 43.3671422], [67.665413, 43.370785], [67.6607342, 43.3742045], [67.64952, 43.375857], [67.6640552, 43.3830742], [67.7250358, 43.407283], [67.7507047, 43.4718204], [67.7341192, 43.4801754], [67.7935492, 43.5637907], [67.813837, 43.5630496], [67.8256756, 43.5987943], [67.828615, 43.6196772], [67.8382103, 43.6392192], [67.8239247, 43.7436641], [67.8456908, 43.7421065], [67.8837983, 43.7288865], [67.8987807, 43.7050127], [67.9189823, 43.701901], [67.9353738, 43.7061213], [67.9714607, 43.7369515], [67.9689158, 43.7422662], [67.971939, 43.7705059], [67.9792878, 43.8024696], [67.9549507, 43.8699847], [67.9211238, 43.8755166], [67.9216296, 43.8864503], [67.9395133, 43.9084753], [67.9655964, 43.9350196], [68.0263461, 43.9624934], [68.0440638, 43.9941428], [68.0504789, 44.000296], [68.0596617, 44.0208314], [68.0603024, 44.0264966], [68.0398472, 44.0328341], [68.0042197, 44.0629935], [67.9580292, 44.0783033], [67.9161977, 44.0986458], [67.9063735, 44.1157134], [67.886958, 44.1322839], [67.8069274, 44.166165], [67.7865918, 44.2033319], [67.7564211, 44.2221459], [67.7410365, 44.2638373], [67.733382, 44.271978], [67.630688, 44.3111868], [67.5829861, 44.2950503], [67.5593265, 44.3120193], [67.4824026, 44.3525567], [67.4620291, 44.3677573], [67.4874071, 44.4218733], [67.5089868, 44.4334332], [67.5085481, 44.4670781], [67.5259485, 44.6491445], [67.5268494, 44.6784637], [67.5106155, 44.813437], [67.5222872, 44.8366195], [67.5063496, 45.0483973], [67.5162139, 45.1477684], [67.3908766, 45.1817712], [67.325232, 45.2223617], [67.2170649, 45.2718879], [67.1745469, 45.3001464], [67.1679031, 45.3022385], [67.1720225, 45.307036], [67.1678994, 45.3132397], [67.178249, 45.3143824], [67.1786067, 45.3212278], [67.1669916, 45.3348807], [67.1681668, 45.3511988], [67.1816895, 45.3572404], [67.1832919, 45.3675287], [67.1943031, 45.3720864], [67.2030548, 45.3827681], [67.2200221, 45.3874545], [67.2403349, 45.3956379], [67.2458704, 45.406151], [67.242401, 45.4135184], [67.2471172, 45.4182162], [67.2454553, 45.4211167], [67.2374603, 45.4237648], [67.2334633, 45.4310358], [67.2390383, 45.4434254], [67.252668, 45.4545113], [67.263826, 45.4695613], [67.2581611, 45.4885788], [67.2646843, 45.5031385], [67.2597061, 45.5143264], [67.261766, 45.5270755], [67.2577094, 45.5511054], [67.2448428, 45.5644112], [67.2567455, 45.5716747], [67.2535263, 45.5840504], [67.262281, 45.5964234], [67.2907768, 45.6139572], [67.289263, 45.6340781], [67.2871814, 45.6375966], [67.2892339, 45.6383752], [67.2983299, 45.6581275], [67.285627, 45.6660456], [67.2935234, 45.6873951], [67.3189293, 45.6975872], [67.3359238, 45.717007], [67.3343788, 45.7263548], [67.3421036, 45.7422905], [67.3615013, 45.7525924], [67.3654495, 45.7575031], [67.3481117, 45.7936612], [67.3326622, 45.7986879], [67.3260505, 45.8028913], [67.3256241, 45.8106546], [67.317041, 45.8157994], [67.318586, 45.8209438], [67.3148094, 45.8341017], [67.3041178, 45.8487998], [67.2950137, 45.8520296], [67.278305, 45.8472429], [67.2713084, 45.8561725], [67.2670875, 45.8663852], [67.2374075, 45.8861197], [67.2413925, 45.8992622], [67.2040159, 45.9156157], [67.1752524, 45.93417], [67.1630718, 45.9556505], [67.1794215, 45.9746174], [67.1673235, 45.9943513], [67.1749801, 46.0005345], [67.1743377, 46.006041], [67.1706208, 46.0096854], [67.1710976, 46.017045], [67.167867, 46.0192489], [67.1692938, 46.0208313], [67.1669322, 46.024553], [67.1614895, 46.027139], [67.1609309, 46.0307224], [67.165442, 46.0345544], [67.1673328, 46.0390405], [67.1789126, 46.0419826], [67.1825838, 46.0446588], [67.1816926, 46.0498801], [67.1776934, 46.0535202], [67.1634207, 46.0569398], [67.1610696, 46.0626944], [67.1559763, 46.0666782], [67.1593984, 46.0780675], [67.1557382, 46.0846364], [67.1571963, 46.0889206], [67.149431, 46.0973167], [67.1438406, 46.1076412], [67.14937, 46.1146928], [67.1505519, 46.1200588], [67.1576267, 46.1264666], [67.1581853, 46.1361389], [67.1530235, 46.1371695], [67.1457202, 46.1351576], [67.141196, 46.1362815], [67.1376722, 46.1432238], [66.9016642, 46.1724748], [66.6769346, 46.1586187], [66.389996, 46.1624738], [66.0412277, 46.1802483], [66.0026535, 46.1759626], [65.8925691, 46.1780017], [65.698243, 46.2098916], [65.5859584, 46.212706], [65.5506267, 46.2360678], [65.372556, 46.3117137], [65.1408425, 46.4765474], [64.9417668, 46.5013541], [64.4472822, 46.6888715], [64.1789068, 46.7420283], [64.0299669, 46.7951566], [63.8486252, 46.8356356], [63.8307867, 46.8356084], [63.8039157, 46.8307984], [63.7898366, 46.8320251], [63.7713948, 46.8395669], [63.7608295, 46.8401225], [63.746617, 46.8313474], [63.7395419, 46.8301059], [63.5338233, 46.9197922], [63.5089014, 46.9288639], [63.4472733, 46.9365295], [63.3031255, 46.9715107], [63.2129697, 47.0301649], [63.2078267, 47.0312742], [63.3706171, 47.0641564], [63.4070874, 47.1134824], [63.0183195, 47.1992063], [62.9500893, 47.1907705]]]}}